{
  "type": "FeatureCollection",
  "features": [
    {
      "type": "Feature",
      "properties": {
        "norad_id": 38495,
        "name": "FENGYUN 1C DEB",
        "group": "fengyun-1c-debris",
        "lat": -80.208565605089,
        "lon": 84.62213007468476,
        "alt_km": 1191.7239196038408,
        "timestamp": "2025-12-25T11:37:44.725260+00:00",
        "meta_object_name": "FENGYUN 1C DEB",
        "meta_object_id": "1999-025ESE",
        "meta_epoch": "2025-12-02T06:20:41.771904",
        "meta_mean_motion": 13.69106573,
        "meta_eccentricity": 0.0252581,
        "meta_inclination": 99.1709,
        "meta_ra_of_asc_node": 353.1036,
        "meta_arg_of_pericenter": 165.9119,
        "meta_mean_anomaly": 194.9245,
        "meta_ephemeris_type": 0,
        "meta_classification_type": "U",
        "meta_norad_cat_id": 38495,
        "meta_element_set_no": 999,
        "meta_rev_at_epoch": 60969,
        "meta_bstar": 0.0025866,
        "meta_mean_motion_dot": 2.759e-05,
        "meta_mean_motion_ddot": 0,
        "tle_line1": "1 38495U 99025ESE 25336.26437236  .00002759  00000+0  25866-2 0  9997",
        "tle_line2": "2 38495  99.1709 353.1036 0252581 165.9119 194.9245 13.69106573609697"
      },
      "geometry": {
        "type": "Point",
        "coordinates": [
          84.62213007468476,
          -80.208565605089
        ]
      }
    },
    {
      "type": "Feature",
      "properties": {
        "norad_id": 38496,
        "name": "FENGYUN 1C DEB",
        "group": "fengyun-1c-debris",
        "lat": 71.07485341766431,
        "lon": -144.37611775025917,
        "alt_km": 892.8219335349013,
        "timestamp": "2025-12-25T11:37:44.725271+00:00",
        "meta_object_name": "FENGYUN 1C DEB",
        "meta_object_id": "1999-025ESF",
        "meta_epoch": "2025-12-19T06:57:41.678208",
        "meta_mean_motion": 14.10020272,
        "meta_eccentricity": 0.0077623,
        "meta_inclination": 98.7629,
        "meta_ra_of_asc_node": 2.8558,
        "meta_arg_of_pericenter": 347.946,
        "meta_mean_anomaly": 11.9851,
        "meta_ephemeris_type": 0,
        "meta_classification_type": "U",
        "meta_norad_cat_id": 38496,
        "meta_element_set_no": 999,
        "meta_rev_at_epoch": 81113,
        "meta_bstar": 0.00061884,
        "meta_mean_motion_dot": 1.08e-05,
        "meta_mean_motion_ddot": 0,
        "tle_line1": "1 38496U 99025ESF 25353.29006572  .00001080  00000+0  61884-3 0  9992",
        "tle_line2": "2 38496  98.7629   2.8558 0077623 347.9460  11.9851 14.10020272811137"
      },
      "geometry": {
        "type": "Point",
        "coordinates": [
          -144.37611775025917,
          71.07485341766431
        ]
      }
    },
    {
      "type": "Feature",
      "properties": {
        "norad_id": 38498,
        "name": "FENGYUN 1C DEB",
        "group": "fengyun-1c-debris",
        "lat": 43.477009110721674,
        "lon": -152.3083106956139,
        "alt_km": 1266.1591150465483,
        "timestamp": "2025-12-25T11:37:44.725281+00:00",
        "meta_object_name": "FENGYUN 1C DEB",
        "meta_object_id": "1999-025ESH",
        "meta_epoch": "2025-12-22T07:03:50.461056",
        "meta_mean_motion": 12.96639906,
        "meta_eccentricity": 0.05557542,
        "meta_inclination": 99.6983,
        "meta_ra_of_asc_node": 15.5173,
        "meta_arg_of_pericenter": 50.4291,
        "meta_mean_anomaly": 314.4564,
        "meta_ephemeris_type": 0,
        "meta_classification_type": "U",
        "meta_norad_cat_id": 38498,
        "meta_element_set_no": 999,
        "meta_rev_at_epoch": 53867,
        "meta_bstar": 0.0023471265,
        "meta_mean_motion_dot": 1.336e-05,
        "meta_mean_motion_ddot": 0,
        "tle_line1": "1 38498U 99025ESH 25356.29433404  .00001336  00000+0  23471-2 0  9998",
        "tle_line2": "2 38498  99.6983  15.5173 0555754  50.4291 314.4564 12.96639906538679"
      },
      "geometry": {
        "type": "Point",
        "coordinates": [
          -152.3083106956139,
          43.477009110721674
        ]
      }
    },
    {
      "type": "Feature",
      "properties": {
        "norad_id": 38510,
        "name": "FENGYUN 1C DEB",
        "group": "fengyun-1c-debris",
        "lat": -44.39613569136273,
        "lon": 179.55119622799046,
        "alt_km": 878.3473939669584,
        "timestamp": "2025-12-25T11:37:44.725291+00:00",
        "meta_object_name": "FENGYUN 1C DEB",
        "meta_object_id": "1999-025ESV",
        "meta_epoch": "2025-12-23T07:36:20.803680",
        "meta_mean_motion": 14.13344604,
        "meta_eccentricity": 0.00959048,
        "meta_inclination": 98.6029,
        "meta_ra_of_asc_node": 5.9908,
        "meta_arg_of_pericenter": 120.5823,
        "meta_mean_anomaly": 240.4854,
        "meta_ephemeris_type": 0,
        "meta_classification_type": "U",
        "meta_norad_cat_id": 38510,
        "meta_element_set_no": 999,
        "meta_rev_at_epoch": 88819,
        "meta_bstar": 0.00051230803,
        "meta_mean_motion_dot": 9.63e-06,
        "meta_mean_motion_ddot": 0,
        "tle_line1": "1 38510U 99025ESV 25357.31690745  .00000963  00000+0  51231-3 0  9991",
        "tle_line2": "2 38510  98.6029   5.9908 0095904 120.5823 240.4854 14.13344604888193"
      },
      "geometry": {
        "type": "Point",
        "coordinates": [
          179.55119622799046,
          -44.39613569136273
        ]
      }
    },
    {
      "type": "Feature",
      "properties": {
        "norad_id": 38512,
        "name": "FENGYUN 1C DEB",
        "group": "fengyun-1c-debris",
        "lat": -78.56342538482403,
        "lon": 12.97797694268371,
        "alt_km": 1155.8291115431803,
        "timestamp": "2025-12-25T11:37:44.725301+00:00",
        "meta_object_name": "FENGYUN 1C DEB",
        "meta_object_id": "1999-025ESX",
        "meta_epoch": "2025-12-10T03:21:08.986176",
        "meta_mean_motion": 13.7397021,
        "meta_eccentricity": 0.02264501,
        "meta_inclination": 98.3804,
        "meta_ra_of_asc_node": 226.2794,
        "meta_arg_of_pericenter": 112.1956,
        "meta_mean_anomaly": 250.339,
        "meta_ephemeris_type": 0,
        "meta_classification_type": "U",
        "meta_norad_cat_id": 38512,
        "meta_element_set_no": 999,
        "meta_rev_at_epoch": 59534,
        "meta_bstar": 0.0014232555,
        "meta_mean_motion_dot": 1.573e-05,
        "meta_mean_motion_ddot": 0,
        "tle_line1": "1 38512U 99025ESX 25344.13968734  .00001573  00000+0  14233-2 0  9993",
        "tle_line2": "2 38512  98.3804 226.2794 0226450 112.1956 250.3390 13.73970210595340"
      },
      "geometry": {
        "type": "Point",
        "coordinates": [
          12.97797694268371,
          -78.56342538482403
        ]
      }
    },
    {
      "type": "Feature",
      "properties": {
        "norad_id": 38514,
        "name": "FENGYUN 1C DEB",
        "group": "fengyun-1c-debris",
        "lat": 66.9989766992179,
        "lon": -132.64923556363158,
        "alt_km": 966.5571059069907,
        "timestamp": "2025-12-25T11:37:44.725311+00:00",
        "meta_object_name": "FENGYUN 1C DEB",
        "meta_object_id": "1999-025ESZ",
        "meta_epoch": "2025-12-25T00:56:07.133280",
        "meta_mean_motion": 14.16200659,
        "meta_eccentricity": 0.0269437,
        "meta_inclination": 98.0544,
        "meta_ra_of_asc_node": 27.4614,
        "meta_arg_of_pericenter": 337.8346,
        "meta_mean_anomaly": 21.1356,
        "meta_ephemeris_type": 0,
        "meta_classification_type": "U",
        "meta_norad_cat_id": 38514,
        "meta_element_set_no": 999,
        "meta_rev_at_epoch": 88170,
        "meta_bstar": 0.0072966,
        "meta_mean_motion_dot": 0.00020596,
        "meta_mean_motion_ddot": 0,
        "tle_line1": "1 38514U 99025ESZ 25359.03897145  .00020596  00000+0  72966-2 0  9990",
        "tle_line2": "2 38514  98.0544  27.4614 0269437 337.8346  21.1356 14.16200659881708"
      },
      "geometry": {
        "type": "Point",
        "coordinates": [
          -132.64923556363158,
          66.9989766992179
        ]
      }
    },
    {
      "type": "Feature",
      "properties": {
        "norad_id": 38516,
        "name": "FENGYUN 1C DEB",
        "group": "fengyun-1c-debris",
        "lat": -11.760912771675347,
        "lon": 161.32669244604037,
        "alt_km": 801.0414115682752,
        "timestamp": "2025-12-25T11:37:44.725322+00:00",
        "meta_object_name": "FENGYUN 1C DEB",
        "meta_object_id": "1999-025ETB",
        "meta_epoch": "2025-12-24T16:19:45.991488",
        "meta_mean_motion": 14.34056403,
        "meta_eccentricity": 0.0111753,
        "meta_inclination": 98.4438,
        "meta_ra_of_asc_node": 342.3136,
        "meta_arg_of_pericenter": 90.1675,
        "meta_mean_anomaly": 271.2316,
        "meta_ephemeris_type": 0,
        "meta_classification_type": "U",
        "meta_norad_cat_id": 38516,
        "meta_element_set_no": 999,
        "meta_rev_at_epoch": 85044,
        "meta_bstar": 0.00010995262,
        "meta_mean_motion_dot": 2.86e-06,
        "meta_mean_motion_ddot": 0,
        "tle_line1": "1 38516U 99025ETB 25358.68039342  .00000286  00000+0  10995-3 0  9998",
        "tle_line2": "2 38516  98.4438 342.3136 0111753  90.1675 271.2316 14.34056403850442"
      },
      "geometry": {
        "type": "Point",
        "coordinates": [
          161.32669244604037,
          -11.760912771675347
        ]
      }
    }
  ]
}